{
  "links" : {
    "next" : "https://api.nasa.gov/neo/rest/v1/neo/browse?page=48&size=20&api_key=jqAGvNAwUIBu4fl9FSOjdm3V4F7hIglRzI6pdX9d",
    "prev" : "https://api.nasa.gov/neo/rest/v1/neo/browse?page=46&size=20&api_key=jqAGvNAwUIBu4fl9FSOjdm3V4F7hIglRzI6pdX9d",
    "self" : "https://api.nasa.gov/neo/rest/v1/neo/browse?page=47&size=20&api_key=jqAGvNAwUIBu4fl9FSOjdm3V4F7hIglRzI6pdX9d"
  },
  "page" : {
    "size" : 20,
    "total_elements" : 20750,
    "total_pages" : 1038,
    "number" : 47
  },
  "near_earth_objects" : [ {
    "links" : {
      "self" : "https://api.nasa.gov/neo/rest/v1/neo/3432640?api_key=jqAGvNAwUIBu4fl9FSOjdm3V4F7hIglRzI6pdX9d"
    },
    "neo_reference_id" : "3432640",
    "name" : "(2008 UU)",
    "designation" : "2008 UU",
    "nasa_jpl_url" : "http://ssd.jpl.nasa.gov/sbdb.cgi?sstr=3432640",
    "absolute_magnitude_h" : 24.7,
    "estimated_diameter" : {
      "kilometers" : {
        "estimated_diameter_min" : 0.0305179233,
        "estimated_diameter_max" : 0.0682401509
      },
      "meters" : {
        "estimated_diameter_min" : 30.5179232594,
        "estimated_diameter_max" : 68.2401509401
      },
      "miles" : {
        "estimated_diameter_min" : 0.0189629525,
        "estimated_diameter_max" : 0.0424024508
      },
      "feet" : {
        "estimated_diameter_min" : 100.1244233463,
        "estimated_diameter_max" : 223.8850168104
      }
    },
    "is_potentially_hazardous_asteroid" : false,
    "close_approach_data" : [ {
      "close_approach_date" : "2008-11-02",
      "epoch_date_close_approach" : 1225609200000,
      "relative_velocity" : {
        "kilometers_per_second" : "9.9547206735",
        "kilometers_per_hour" : "35836.9944246938",
        "miles_per_hour" : "22267.7146746104"
      },
      "miss_distance" : {
        "astronomical" : "0.1010877937",
        "lunar" : "39.3231506348",
        "kilometers" : "15122519",
        "miles" : "9396698"
      },
      "orbiting_body" : "Earth"
    } ],
    "orbital_data" : {
      "orbit_id" : "9",
      "orbit_determination_date" : "2017-04-06 09:02:31",
      "first_observation_date" : "2008-10-21",
      "last_observation_date" : "2008-10-27",
      "data_arc_in_days" : 6,
      "observations_used" : 26,
      "orbit_uncertainty" : "9",
      "minimum_orbit_intersection" : ".10094",
      "jupiter_tisserand_invariant" : "3.006",
      "epoch_osculation" : "2454763.5",
      "eccentricity" : ".6128024216145189",
      "semi_major_axis" : "2.764516381409913",
      "inclination" : "12.68289606551911",
      "ascending_node_longitude" : "31.42405576436952",
      "orbital_period" : "1678.909082225259",
      "perihelion_distance" : "1.070414048288911",
      "perihelion_argument" : "25.20138906440543",
      "aphelion_distance" : "4.458618714530914",
      "perihelion_time" : "2454787.124902045761",
      "mean_anomaly" : "354.934231503947",
      "mean_motion" : ".214424952376128",
      "equinox" : "J2000",
      "orbit_class" : {
        "orbit_class_type" : "AMO",
        "orbit_class_range" : "1.017 AU < q (perihelion) < 1.3 AU",
        "orbit_class_description" : "Near-Earth asteroid orbits similar to that of 1221 Amor"
      }
    },
    "is_sentry_object" : false
  }, {
    "links" : {
      "self" : "https://api.nasa.gov/neo/rest/v1/neo/3432641?api_key=jqAGvNAwUIBu4fl9FSOjdm3V4F7hIglRzI6pdX9d"
    },
    "neo_reference_id" : "3432641",
    "name" : "(2008 UV)",
    "designation" : "2008 UV",
    "nasa_jpl_url" : "http://ssd.jpl.nasa.gov/sbdb.cgi?sstr=3432641",
    "absolute_magnitude_h" : 24.8,
    "estimated_diameter" : {
      "kilometers" : {
        "estimated_diameter_min" : 0.0291443905,
        "estimated_diameter_max" : 0.0651688382
      },
      "meters" : {
        "estimated_diameter_min" : 29.1443904535,
        "estimated_diameter_max" : 65.1688382168
      },
      "miles" : {
        "estimated_diameter_min" : 0.018109479,
        "estimated_diameter_max" : 0.0404940262
      },
      "feet" : {
        "estimated_diameter_min" : 95.6180819754,
        "estimated_diameter_max" : 213.8085311752
      }
    },
    "is_potentially_hazardous_asteroid" : false,
    "close_approach_data" : [ {
      "close_approach_date" : "2008-10-19",
      "epoch_date_close_approach" : 1224399600000,
      "relative_velocity" : {
        "kilometers_per_second" : "7.8781578363",
        "kilometers_per_hour" : "28361.3682108504",
        "miles_per_hour" : "17622.6512641254"
      },
      "miss_distance" : {
        "astronomical" : "0.0829736676",
        "lunar" : "32.2767562866",
        "kilometers" : "12412684",
        "miles" : "7712884"
      },
      "orbiting_body" : "Earth"
    } ],
    "orbital_data" : {
      "orbit_id" : "8",
      "orbit_determination_date" : "2017-04-06 09:02:31",
      "first_observation_date" : "2008-10-21",
      "last_observation_date" : "2008-11-01",
      "data_arc_in_days" : 11,
      "observations_used" : 31,
      "orbit_uncertainty" : "9",
      "minimum_orbit_intersection" : ".0829522",
      "jupiter_tisserand_invariant" : "4.212",
      "epoch_osculation" : "2454765.5",
      "eccentricity" : ".3401245411749121",
      "semi_major_axis" : "1.633515390458236",
      "inclination" : "13.04906847587955",
      "ascending_node_longitude" : "205.6173556725444",
      "orbital_period" : "762.5762456020874",
      "perihelion_distance" : "1.077916717776471",
      "perihelion_argument" : "185.3157078444979",
      "aphelion_distance" : "2.189114063140001",
      "perihelion_time" : "2454763.461928412119",
      "mean_anomaly" : ".9621408690194212",
      "mean_motion" : ".4720839418696608",
      "equinox" : "J2000",
      "orbit_class" : {
        "orbit_class_type" : "AMO",
        "orbit_class_range" : "1.017 AU < q (perihelion) < 1.3 AU",
        "orbit_class_description" : "Near-Earth asteroid orbits similar to that of 1221 Amor"
      }
    },
    "is_sentry_object" : false
  }, {
    "links" : {
      "self" : "https://api.nasa.gov/neo/rest/v1/neo/3432687?api_key=jqAGvNAwUIBu4fl9FSOjdm3V4F7hIglRzI6pdX9d"
    },
    "neo_reference_id" : "3432687",
    "name" : "(2008 UT1)",
    "designation" : "2008 UT1",
    "nasa_jpl_url" : "http://ssd.jpl.nasa.gov/sbdb.cgi?sstr=3432687",
    "absolute_magnitude_h" : 22.3,
    "estimated_diameter" : {
      "kilometers" : {
        "estimated_diameter_min" : 0.0921626549,
        "estimated_diameter_max" : 0.2060819612
      },
      "meters" : {
        "estimated_diameter_min" : 92.1626548503,
        "estimated_diameter_max" : 206.0819612321
      },
      "miles" : {
        "estimated_diameter_min" : 0.057267201,
        "estimated_diameter_max" : 0.1280533543
      },
      "feet" : {
        "estimated_diameter_min" : 302.370924539,
        "estimated_diameter_max" : 676.1219416887
      }
    },
    "is_potentially_hazardous_asteroid" : false,
    "close_approach_data" : [ {
      "close_approach_date" : "2008-10-24",
      "epoch_date_close_approach" : 1224831600000,
      "relative_velocity" : {
        "kilometers_per_second" : "24.9201992682",
        "kilometers_per_hour" : "89712.7173654941",
        "miles_per_hour" : "55743.9937430205"
      },
      "miss_distance" : {
        "astronomical" : "0.0906320978",
        "lunar" : "35.2558860779",
        "kilometers" : "13558369",
        "miles" : "8424780"
      },
      "orbiting_body" : "Earth"
    } ],
    "orbital_data" : {
      "orbit_id" : "11",
      "orbit_determination_date" : "2017-04-06 09:02:30",
      "first_observation_date" : "2008-10-22",
      "last_observation_date" : "2008-10-30",
      "data_arc_in_days" : 8,
      "observations_used" : 53,
      "orbit_uncertainty" : "9",
      "minimum_orbit_intersection" : ".0803243",
      "jupiter_tisserand_invariant" : "3.916",
      "epoch_osculation" : "2454767.5",
      "eccentricity" : ".4625630203516774",
      "semi_major_axis" : "1.629154554037318",
      "inclination" : "43.31964171892615",
      "ascending_node_longitude" : "34.58141421768028",
      "orbital_period" : "759.5246215931687",
      "perihelion_distance" : ".8755679029021264",
      "perihelion_argument" : "292.8623458450724",
      "aphelion_distance" : "2.382741205172511",
      "perihelion_time" : "2454711.916530983780",
      "mean_anomaly" : "26.34549068846036",
      "mean_motion" : ".4739806844508461",
      "equinox" : "J2000",
      "orbit_class" : {
        "orbit_class_type" : "APO",
        "orbit_class_range" : "a (semi-major axis) > 1.0 AU; q (perihelion) < 1.017 AU",
        "orbit_class_description" : "Near-Earth asteroid orbits which cross the Earth’s orbit similar to that of 1862 Apollo"
      }
    },
    "is_sentry_object" : false
  } ]
}